NORAD_CAT_ID,OBJECT_NAME,OBJECT_TYPE,EPOCH,MEAN_MOTION,ECCENTRICITY,INCLINATION,RA_OF_ASC_NODE,ARG_OF_PERICENTER,MEAN_ANOMALY,BSTAR,MEAN_MOTION_DOT,MEAN_MOTION_DDOT,TLE_LINE0,TLE_LINE1,TLE_LINE2,SEMIMAJOR_AXIS,PERIOD,APOGEE,PERIGEE,DECAYED
53286.0,STARLINK-4165,PAYLOAD,2023-04-11 18:40:36,15.0883764,0.0001059,53.2152,275.7163,88.6322,271.4792,2.5955e-05,1.25e-06,0.0,0 STARLINK-4165,1 53286U 22086AW  23101.77820068  .00000125  00000-0  25955-4 0  9995,2 53286  53.2152 275.7163 0001059  88.6322 271.4792 15.08837640 40726,6917.888,95.438,540.485,539.02,0.0
53286.0,STARLINK-4165,PAYLOAD,2023-04-12 12:09:50,15.08842565,8.96e-05,53.2162,272.4454,89.0628,271.0467,0.00014405,2.006e-05,0.0,0 STARLINK-4165,1 53286U 22086AW  23102.50683981  .00002006  00000-0  14405-3 0  9995,2 53286  53.2162 272.4454 0000896  89.0628 271.0467 15.08842565 40835,6917.873,95.437,540.357,539.118,0.0
53286.0,STARLINK-4165,PAYLOAD,2023-04-13 10:25:14,15.08846139,0.0001522,53.2138,268.2812,83.453,276.6636,0.00020904,3.041e-05,0.0,0 STARLINK-4165,1 53286U 22086AW  23103.43419840  .00003041  00000-0  20904-3 0  9990,2 53286  53.2138 268.2812 0001522  83.4530 276.6636 15.08846139 40971,6917.862,95.437,540.78,538.674,0.0
53286.0,STARLINK-4165,PAYLOAD,2023-04-13 12:00:37,15.08840147,7.05e-05,53.2168,267.9857,67.6704,292.4363,7.5577e-05,9.15e-06,0.0,0 STARLINK-4165,1 53286U 22086AW  23103.50043954  .00000915  00000-0  75577-4 0  9991,2 53286  53.2168 267.9857 0000705  67.6704 292.4363 15.08840147 40828,6917.88,95.438,540.233,539.257,0.0
53286.0,STARLINK-4165,PAYLOAD,2023-04-14 10:16:01,15.08834623,1.87e-05,53.216,263.8226,63.9489,296.1522,-0.00016111,-2.85e-05,0.0,0 STARLINK-4165,1 53286U 22086AW  23104.42779505 -.00002850  00000-0 -16111-3 0  9991,2 53286  53.2160 263.8226 0000187  63.9489 296.1522 15.08834623 41122,6917.897,95.438,539.891,539.632,0.0
53286.0,STARLINK-4165,PAYLOAD,2023-04-14 16:37:34,15.0885344,0.0001378,53.2162,262.6336,69.4476,290.6664,0.0005006,7.691e-05,0.0,0 STARLINK-4165,1 53286U 22086AW  23104.69275486  .00007691  00000-0  50060-3 0  9996,2 53286  53.2162 262.6336 0001378  69.4476 290.6664 15.08853440 41004,6917.839,95.437,540.658,538.751,0.0
53286.0,STARLINK-4165,PAYLOAD,2023-04-15 10:06:48,15.0884331,0.0001633,53.2142,259.3617,67.8451,292.2714,0.00051911,7.984e-05,0.0,0 STARLINK-4165,1 53286U 22086AW  23105.42139926  .00007984  00000-0  51911-3 0  9997,2 53286  53.2142 259.3617 0001633  67.8451 292.2714 15.08843310 41117,6917.87,95.437,540.865,538.606,0.0
53286.0,STARLINK-4165,PAYLOAD,2023-04-15 19:39:07,15.08856883,8.98e-05,53.2146,257.5761,87.8726,272.2369,0.00086943,0.00013582,0.0,0 STARLINK-4165,1 53286U 22086AW  23105.81883456  .00013582  00000-0  86943-3 0  9998,2 53286  53.2146 257.5761 0000898  87.8726 272.2369 15.08856883 41337,6917.829,95.436,540.315,539.073,0.0
53286.0,STARLINK-4165,PAYLOAD,2023-04-16 13:08:22,15.08842517,0.0001029,53.2143,254.3059,99.2692,260.8417,0.00098538,0.0001543,0.0,0 STARLINK-4165,1 53286U 22086AW  23106.54747873  .00015430  00000-0  98538-3 0  9998,2 53286  53.2143 254.3059 0001029  99.2692 260.8417 15.08842517 41285,6917.873,95.437,540.45,539.026,0.0
53286.0,STARLINK-4165,PAYLOAD,2023-04-16 19:29:54,15.08856886,9.51e-05,53.2155,253.1168,91.623,268.4871,0.00099348,0.00015566,0.0,0 STARLINK-4165,1 53286U 22086AW  23106.81243591  .00015566  00000-0  99348-3 0  9996,2 53286  53.2155 253.1168 0000951  91.6230 268.4871 15.08856886 41487,6917.829,95.436,540.352,539.036,0.0
53286.0,STARLINK-4165,PAYLOAD,2023-04-17 12:59:09,15.08849444,8.13e-05,53.2158,249.8444,88.0802,272.0283,0.0010314,0.00016169,0.0,0 STARLINK-4165,1 53286U 22086AW  23107.54108037  .00016169  00000-0  10314-2 0  9997,2 53286  53.2158 249.8444 0000813  88.0802 272.0283 15.08849444 41436,6917.852,95.437,540.279,539.154,0.0
53286.0,STARLINK-4165,PAYLOAD,2023-04-17 19:20:41,15.08863072,0.0001082,53.2159,248.6558,78.9489,281.1625,0.001765,0.00027931,0.0,0 STARLINK-4165,1 53286U 22086AW  23107.80603875  .00027931  00000-0  17650-2 0  9995,2 53286  53.2159 248.6558 0001082  78.9489 281.1625 15.08863072 41634,6917.81,95.436,540.423,538.926,0.0
53286.0,STARLINK-4165,PAYLOAD,2023-04-18 09:39:10,15.08828728,9.83e-05,53.2162,245.9797,90.2443,269.8662,0.0010167,0.00015925,0.0,0 STARLINK-4165,1 53286U 22086AW  23108.40220513  .00015925  00000-0  10167-2 0  9992,2 53286  53.2162 245.9797 0000983  90.2443 269.8662 15.08828728 41564,6917.915,95.438,540.46,539.1,0.0
53286.0,STARLINK-4165,PAYLOAD,2023-04-18 16:00:42,15.08852455,0.000111,53.2164,244.7906,92.0209,268.091,0.0017649,0.00027922,0.0,0 STARLINK-4165,1 53286U 22086AW  23108.66716340  .00027922  00000-0  17649-2 0  9990,2 53286  53.2164 244.7906 0001110  92.0209 268.0910 15.08852455 41604,6917.842,95.437,540.475,538.939,0.0
53286.0,STARLINK-4165,PAYLOAD,2023-04-19 01:33:02,15.08806547,0.0001577,53.216,243.0063,75.8216,284.2952,-0.00095233,-0.00015398,0.0,0 STARLINK-4165,1 53286U 22086AW  23109.06461274 -.00015398  00000-0 -95233-3 0  9990,2 53286  53.2160 243.0063 0001577  75.8216 284.2952 15.08806547 41663,6917.983,95.44,540.939,538.757,0.0
53286.0,STARLINK-4165,PAYLOAD,2023-04-19 09:30:02,15.08657132,0.0001852,53.2158,241.5193,126.0573,234.0591,-0.004795,-0.00075426,0.0,0 STARLINK-4165,1 53286U 22086AW  23109.39586134 -.00075426  00000-0 -47950-2 0  9999,2 53286  53.2158 241.5193 0001852 126.0573 234.0591 15.08657132 41710,6918.439,95.449,541.586,539.023,0.0
53286.0,STARLINK-4165,PAYLOAD,2023-04-19 20:38:01,15.08253337,0.0002481,53.2159,239.4397,142.1732,217.9435,-0.0059724,-0.00092629,0.0,0 STARLINK-4165,1 53286U 22086AW  23109.85974385 -.00092629  00000-0 -59724-2 0  9995,2 53286  53.2159 239.4397 0002481 142.1732 217.9435 15.08253337 41949,6919.674,95.475,543.256,539.822,0.0
53286.0,STARLINK-4165,PAYLOAD,2023-04-20 07:46:04,15.08097066,0.0001468,53.2157,237.3586,102.8313,257.2843,-0.0061394,-0.00094772,0.0,0 STARLINK-4165,1 53286U 22086AW  23110.32366499 -.00094772  00000-0 -61394-2 0  9997,2 53286  53.2157 237.3586 0001468 102.8313 257.2843 15.08097066 42010,6920.152,95.485,543.033,541.001,0.0
53286.0,STARLINK-4165,PAYLOAD,2023-04-20 20:29:35,15.0807312,0.0001074,53.2154,234.9812,96.6197,263.4917,0.0034146,0.00053334,0.0,0 STARLINK-4165,1 53286U 22086AW  23110.85388072  .00053334  00000-0  34146-2 0  9998,2 53286  53.2154 234.9812 0001074  96.6197 263.4917 15.08073120 42099,6920.225,95.486,542.834,541.347,0.0
53286.0,STARLINK-4165,PAYLOAD,2023-04-21 08:00:01,15.08710591,0.0001142,53.2157,232.8303,92.6398,352.5046,0.012014,0.0019558,0.0,0 STARLINK-4165,1 53286U 22086AW  23111.33335648  .00195580  00000-0  12014-1 0  9992,2 53286  53.2157 232.8303 0001142  92.6398 352.5046 15.08710591 42003,6918.276,95.446,540.931,539.351,0.0
53286.0,STARLINK-4165,PAYLOAD,2023-04-21 20:20:37,15.08819056,0.0002312,53.2144,230.5188,97.0836,263.0419,0.0073904,0.00119261,0.0,0 STARLINK-4165,1 53286U 22086AW  23111.84765052  .00119261  00000-0  73904-2 0  9992,2 53286  53.2144 230.5188 0002312  97.0836 263.0419 15.08819056 42243,6917.944,95.439,541.409,538.21,0.0
53286.0,STARLINK-4165,PAYLOAD,2023-04-22 06:00:00,15.08804837,0.0001076,53.2153,228.7155,97.7321,289.1546,0.0045966,0.0007356,0.0,0 STARLINK-4165,1 53286U 22086AW  23112.25001157  .00073560  00000-0  45966-2 0  9995,2 53286  53.2153 228.7155 0001076  97.7321 289.1546 15.08804837 42148,6917.988,95.44,540.597,539.108,0.0
53286.0,STARLINK-4165,PAYLOAD,2023-04-22 07:28:18,15.08839904,0.000115,53.2151,228.4403,92.4821,267.6302,0.0015383,0.00024279,0.0,0 STARLINK-4165,1 53286U 22086AW  23112.31132688  .00024279  00000-0  15383-2 0  9999,2 53286  53.2151 228.4403 0001150  92.4821 267.6302 15.08839904 42312,6917.881,95.438,540.541,538.95,0.0
53286.0,STARLINK-4165,PAYLOAD,2023-04-22 12:14:28,15.08842526,0.0001102,53.2149,227.5477,100.1063,260.0054,0.0012745,0.00020055,0.0,0 STARLINK-4165,1 53286U 22086AW  23112.51004651  .00020055  00000-0  12745-2 0  9996,2 53286  53.2149 227.5477 0001102 100.1063 260.0054 15.08842526 42182,6917.873,95.437,540.5,538.975,0.0
53286.0,STARLINK-4165,PAYLOAD,2023-04-22 20:11:23,15.08857932,0.0001221,53.2136,226.0611,88.8508,271.2624,0.0014036,0.00022132,0.0,0 STARLINK-4165,1 53286U 22086AW  23112.84124403  .00022132  00000-0  14036-2 0  9993,2 53286  53.2136 226.0611 0001221  88.8508 271.2624 15.08857932 42397,6917.826,95.436,540.535,538.846,0.0
53286.0,STARLINK-4165,PAYLOAD,2023-04-23 00:57:33,15.08827718,3.06e-05,53.2141,225.1712,98.3893,261.7134,2.0063e-05,3.2e-07,0.0,0 STARLINK-4165,1 53286U 22086AW  23113.03996717  .00000032  00000-0  20063-4 0  9994,2 53286  53.2141 225.1712 0000306  98.3893 261.7134 15.08827718 42266,6917.918,95.438,539.995,539.571,0.0
53286.0,STARLINK-4165,PAYLOAD,2023-04-23 14:00:01,15.08854245,0.0001389,53.2153,222.732,81.7692,351.4355,-0.0024496,-0.00039077,0.0,0 STARLINK-4165,1 53286U 22086AW  23113.58334491 -.00039077  00000-0 -24496-2 0  9994,2 53286  53.2153 222.7320 0001389  81.7692 351.4355 15.08854245  1309,6917.837,95.437,540.663,538.741,0.0
53286.0,STARLINK-4165,PAYLOAD,2023-04-23 18:26:48,15.08856899,0.0001387,53.2145,221.8985,82.9788,277.1361,0.0025138,0.00039965,0.0,0 STARLINK-4165,1 53286U 22086AW  23113.76861402  .00039965  00000-0  25138-2 0  9999,2 53286  53.2145 221.8985 0001387  82.9788 277.1361 15.08856899 42532,6917.829,95.436,540.653,538.734,0.0
53286.0,STARLINK-4165,PAYLOAD,2023-04-24 00:48:20,15.08863071,0.0001272,53.2144,220.71,89.3889,270.7249,0.0020764,0.00032934,0.0,0 STARLINK-4165,1 53286U 22086AW  23114.03357237  .00032934  00000-0  20764-2 0  9995,2 53286  53.2144 220.7100 0001272  89.3889 270.7249 15.08863071 42415,6917.81,95.436,540.555,538.795,0.0
53286.0,STARLINK-4165,PAYLOAD,2023-04-24 07:09:52,15.08937761,0.000144,53.2146,219.5187,102.4363,257.6791,0.0064678,0.00104456,0.0,0 STARLINK-4165,1 53286U 22086AW  23114.29852420  .00104456  00000-0  64678-2 0  9998,2 53286  53.2146 219.5187 0001440 102.4363 257.6791 15.08937761 42615,6917.582,95.431,540.443,538.45,0.0
